OBJECT_NAME,OBJECT_ID,EPOCH,MEAN_MOTION,ECCENTRICITY,INCLINATION,RA_OF_ASC_NODE,ARG_OF_PERICENTER,MEAN_ANOMALY,NORAD_CAT_ID,ELEMENT_SET_NO,REV_AT_EPOCH,BSTAR,MEAN_MOTION_DOT,MEAN_MOTION_DDOT
STARLINK-37031,2026-050F,2026-03-19T13:39:25.217568,15.98076782,4.58e-05,53.162,232.5378,346.3779,13.7239,68172.0,999.0,203.0,-0.0015788,-0.00746879,0.0001925
STARLINK-37076,2026-050G,2026-03-19T12:09:00.468288,15.98507778,6.45e-05,53.1615,232.8571,359.7564,0.3466,68173.0,999.0,202.0,-0.0017873,-0.00864982,0.00025162
STARLINK-37078,2026-050H,2026-03-19T13:38:45.418272,15.98372202,2.61e-05,53.1617,232.5342,74.2706,285.8353,68174.0,999.0,203.0,-0.0016768,-0.00805867,0.00022125
STARLINK-36886,2026-050J,2026-03-19T13:38:26.608992,15.98517353,8.12e-05,53.1618,232.5329,328.5582,31.54,68175.0,999.0,203.0,-0.0014987,-0.00726912,0.00018427
STARLINK-36905,2026-050K,2026-03-19T13:38:05.675136,15.98675796,7.18e-05,53.1619,232.5315,321.9812,38.1167,68176.0,999.0,203.0,-0.0014521,-0.00710734,0.00017733
STARLINK-36668,2026-050L,2026-03-19T13:37:43.637088,15.98826248,6.96e-05,53.1621,232.5297,333.7333,26.3662,68177.0,999.0,203.0,-0.0014604,-0.00720821,0.00018212
STARLINK-36677,2026-050M,2026-03-19T13:37:24.300768,15.9889842,9.19e-05,53.1619,232.5274,18.8959,341.2106,68178.0,999.0,203.0,-0.0018795,-0.00929161,0.00028745
STARLINK-37052,2026-050N,2026-03-19T13:37:01.873056,15.99173693,8.47e-05,53.1613,232.5262,251.3193,108.7745,68179.0,999.0,203.0,-0.0013225,-0.00666179,0.00015892
STARLINK-37035,2026-050P,2026-03-19T13:36:44.886816,15.99266404,5.93e-05,53.1621,232.5248,324.9508,35.1483,68180.0,999.0,203.0,-0.0013647,-0.0069081,0.00016965
STARLINK-37032,2026-050Q,2026-03-19T13:36:22.448736,15.99422141,7.99e-05,53.1621,232.5236,332.8854,27.2135,68181.0,999.0,203.0,-0.0013712,-0.00700217,0.00017407
STARLINK-37082,2026-050R,2026-03-19T13:36:01.596960,15.99579072,9.64e-05,53.1619,232.522,324.698,35.3987,68182.0,999.0,203.0,-0.0013413,-0.00691167,0.00017038
STARLINK-37102,2026-050S,2026-03-19T13:35:43.723392,15.99705953,8.31e-05,53.162,232.5205,338.312,21.7875,68183.0,999.0,203.0,-0.0013158,-0.00683018,0.00016706
STARLINK-36964,2026-050T,2026-03-19T13:35:24.372384,15.9984909,6.43e-05,53.1619,232.5189,330.0119,30.0875,68184.0,999.0,203.0,-0.0012697,-0.00664681,0.00015944
STARLINK-37061,2026-050U,2026-03-19T13:35:07.527840,15.99892771,6.87e-05,53.1616,232.5178,57.4494,302.6603,68185.0,999.0,203.0,-0.0016679,-0.0087302,0.00025966
STARLINK-37079,2026-050V,2026-03-19T13:34:46.972416,16.00099925,0.0001058,53.162,232.5158,326.7573,33.3392,68186.0,999.0,203.0,-0.0012815,-0.00680419,0.00016664
STARLINK-37006,2026-050W,2026-03-19T13:34:25.626432,16.00247413,7.2e-05,53.162,232.5147,325.802,34.2964,68187.0,999.0,203.0,-0.0012753,-0.00682857,0.00016797
STARLINK-36340,2026-050X,2026-03-19T13:34:08.257440,16.00370058,8.84e-05,53.1619,232.5131,330.3319,29.7662,68188.0,999.0,193.0,-0.0012834,-0.00691967,0.0001722
STARLINK-36305,2026-050Y,2026-03-19T13:33:49.347072,16.00507461,6.64e-05,53.1619,232.5118,330.0991,30.0002,68189.0,999.0,193.0,-0.0012521,-0.00680572,0.00016745
STARLINK-37071,2026-050Z,2026-03-19T13:33:09.686880,16.00795573,7.87e-05,53.162,232.5085,120.8561,239.2548,68190.0,999.0,203.0,-0.001241,-0.00685813,0.00017028
STARLINK-37091,2026-050AA,2026-03-19T13:32:49.437312,16.00938134,7.18e-05,53.1618,232.5067,334.018,26.0815,68191.0,999.0,203.0,-0.0011877,-0.00661998,0.00016019
STARLINK-37098,2026-050AB,2026-03-19T13:32:29.433984,16.01069674,6.47e-05,53.1618,232.5054,327.3796,32.7195,68192.0,999.0,203.0,-0.0012086,-0.00678632,0.00016763
STARLINK-37090,2026-050AC,2026-03-19T13:31:47.877312,16.01369308,7.11e-05,53.1621,232.5012,333.6069,26.4927,68193.0,999.0,203.0,-0.0011396,-0.00651387,0.00015641
STARLINK-37093,2026-050AD,2026-03-19T13:33:27.860256,16.00670231,0.0001079,53.1623,232.5098,125.0257,235.0876,68194.0,999.0,203.0,-0.0012185,-0.00668674,0.00016258
STARLINK-37058,2026-050AE,2026-03-19T07:32:38.613984,16.02049525,0.0002524,53.1616,233.7917,340.0442,20.049,68195.0,999.0,43.0,-0.0012605,-0.00749084,0.00020203
